{
  "norad_id": 53105,
  "name": "LARES-2",
  "history": [
    {
      "epoch": "2026-03-21T01:11:34.239840Z",
      "apogee_km": 5895.845557036481,
      "perigee_km": 5882.568365320417,
      "latitude_deg": 9.229675395307197e-07,
      "longitude_deg": 139.09041054245353,
      "height_km": 5883.96842197061,
      "semi_major_axis_km": 12267.343961178449,
      "eccentricity": 0.00054116,
      "inclination_deg": 70.1732,
      "raan_deg": 335.5553,
      "arg_perigee_deg": 4.6462,
      "mean_anomaly_deg": 355.4347,
      "mean_motion_rev_day": 6.38964821
    }
  ]
}